CCSDS_OMM_VERS = 2.0
CREATION_DATE  = 
ORIGINATOR     = 

OBJECT_NAME    = STARLINK-35349
OBJECT_ID      = 2025-221N
CENTER_NAME    = EARTH
REF_FRAME      = TEME
TIME_SYSTEM    = UTC
MEAN_ELEMENT_THEORY = SGP/SGP4

EPOCH          = 2025-10-28T11:27:59.462784
MEAN_MOTION    = 15.49408289
ECCENTRICITY   = .00015205
INCLINATION    = 53.1600
RA_OF_ASC_NODE = 343.7000
ARG_OF_PERICENTER = 271.1523
MEAN_ANOMALY   = 88.9312

EPHEMERIS_TYPE = 0
CLASSIFICATION_TYPE = U
NORAD_CAT_ID   = 65835
ELEMENT_SET_NO = 999
REV_AT_EPOCH   = 447
BSTAR          = .22184028E-2
MEAN_MOTION_DOT = .125367E-2
MEAN_MOTION_DDOT = 0

CCSDS_OMM_VERS = 2.0
CREATION_DATE  = 
ORIGINATOR     = 

OBJECT_NAME    = STARLINK-35356
OBJECT_ID      = 2025-221P
CENTER_NAME    = EARTH
REF_FRAME      = TEME
TIME_SYSTEM    = UTC
MEAN_ELEMENT_THEORY = SGP/SGP4

EPOCH          = 2025-10-28T09:54:06.945696
MEAN_MOTION    = 15.49334742
ECCENTRICITY   = .00012774
INCLINATION    = 53.1599
RA_OF_ASC_NODE = 344.0022
ARG_OF_PERICENTER = 83.4053
MEAN_ANOMALY   = 276.7102

EPHEMERIS_TYPE = 0
CLASSIFICATION_TYPE = U
NORAD_CAT_ID   = 65836
ELEMENT_SET_NO = 999
REV_AT_EPOCH   = 446
BSTAR          = .13045183E-2
MEAN_MOTION_DOT = .72849E-3
MEAN_MOTION_DDOT = 0

CCSDS_OMM_VERS = 2.0
CREATION_DATE  = 
ORIGINATOR     = 

OBJECT_NAME    = STARLINK-35314
OBJECT_ID      = 2025-221Q
CENTER_NAME    = EARTH
REF_FRAME      = TEME
TIME_SYSTEM    = UTC
MEAN_ELEMENT_THEORY = SGP/SGP4

EPOCH          = 2025-10-28T08:19:44.502240
MEAN_MOTION    = 15.49336752
ECCENTRICITY   = .0001223
INCLINATION    = 53.1599
RA_OF_ASC_NODE = 344.3065
ARG_OF_PERICENTER = 58.3988
MEAN_ANOMALY   = 301.7140

EPHEMERIS_TYPE = 0
CLASSIFICATION_TYPE = U
NORAD_CAT_ID   = 65837
ELEMENT_SET_NO = 999
REV_AT_EPOCH   = 445
BSTAR          = .18337271E-2
MEAN_MOTION_DOT = .102991E-2
MEAN_MOTION_DDOT = 0

CCSDS_OMM_VERS = 2.0
CREATION_DATE  = 
ORIGINATOR     = 

OBJECT_NAME    = STARLINK-35324
OBJECT_ID      = 2025-221R
CENTER_NAME    = EARTH
REF_FRAME      = TEME
TIME_SYSTEM    = UTC
MEAN_ELEMENT_THEORY = SGP/SGP4

EPOCH          = 2025-10-28T09:53:07.840320
MEAN_MOTION    = 15.49333539
ECCENTRICITY   = .00017686
INCLINATION    = 53.1595
RA_OF_ASC_NODE = 343.9993
ARG_OF_PERICENTER = 44.7335
MEAN_ANOMALY   = 315.3817

EPHEMERIS_TYPE = 0
CLASSIFICATION_TYPE = U
NORAD_CAT_ID   = 65838
ELEMENT_SET_NO = 999
REV_AT_EPOCH   = 446
BSTAR          = .16997718E-2
MEAN_MOTION_DOT = .95331E-3
MEAN_MOTION_DDOT = 0

CCSDS_OMM_VERS = 2.0
CREATION_DATE  = 
ORIGINATOR     = 

OBJECT_NAME    = STARLINK-35102
OBJECT_ID      = 2025-221S
CENTER_NAME    = EARTH
REF_FRAME      = TEME
TIME_SYSTEM    = UTC
MEAN_ELEMENT_THEORY = SGP/SGP4

EPOCH          = 2025-10-28T12:57:54.664992
MEAN_MOTION    = 15.49404437
ECCENTRICITY   = .00013712
INCLINATION    = 53.1599
RA_OF_ASC_NODE = 343.3759
ARG_OF_PERICENTER = 279.6354
MEAN_ANOMALY   = 80.4500

EPHEMERIS_TYPE = 0
CLASSIFICATION_TYPE = U
NORAD_CAT_ID   = 65839
ELEMENT_SET_NO = 999
REV_AT_EPOCH   = 448
BSTAR          = .17475628E-2
MEAN_MOTION_DOT = .98306E-3
MEAN_MOTION_DDOT = 0

CCSDS_OMM_VERS = 2.0
CREATION_DATE  = 
ORIGINATOR     = 

OBJECT_NAME    = STARLINK-35364
OBJECT_ID      = 2025-221T
CENTER_NAME    = EARTH
REF_FRAME      = TEME
TIME_SYSTEM    = UTC
MEAN_ELEMENT_THEORY = SGP/SGP4

EPOCH          = 2025-10-27T13:44:03.424704
MEAN_MOTION    = 15.49316861
ECCENTRICITY   = .00014572
INCLINATION    = 53.1593
RA_OF_ASC_NODE = 348.0013
ARG_OF_PERICENTER = 72.3544
MEAN_ANOMALY   = 287.7624

EPHEMERIS_TYPE = 0
CLASSIFICATION_TYPE = U
NORAD_CAT_ID   = 65840
ELEMENT_SET_NO = 999
REV_AT_EPOCH   = 433
BSTAR          = .11942619E-2
MEAN_MOTION_DOT = .66558E-3
MEAN_MOTION_DDOT = 0

CCSDS_OMM_VERS = 2.0
CREATION_DATE  = 
ORIGINATOR     = 

OBJECT_NAME    = STARLINK-35238
OBJECT_ID      = 2025-221U
CENTER_NAME    = EARTH
REF_FRAME      = TEME
TIME_SYSTEM    = UTC
MEAN_ELEMENT_THEORY = SGP/SGP4

EPOCH          = 2025-10-28T12:56:26.151648
MEAN_MOTION    = 15.49329062
ECCENTRICITY   = .00013813
INCLINATION    = 53.1593
RA_OF_ASC_NODE = 343.3724
ARG_OF_PERICENTER = 106.3041
MEAN_ANOMALY   = 253.8120

EPHEMERIS_TYPE = 0
CLASSIFICATION_TYPE = U
NORAD_CAT_ID   = 65841
ELEMENT_SET_NO = 999
REV_AT_EPOCH   = 448
BSTAR          = .13869374E-2
MEAN_MOTION_DOT = .77512E-3
MEAN_MOTION_DDOT = 0

CCSDS_OMM_VERS = 2.0
CREATION_DATE  = 
ORIGINATOR     = 

OBJECT_NAME    = STARLINK-35298
OBJECT_ID      = 2025-221V
CENTER_NAME    = EARTH
REF_FRAME      = TEME
TIME_SYSTEM    = UTC
MEAN_ELEMENT_THEORY = SGP/SGP4

EPOCH          = 2025-10-28T09:51:08.829504
MEAN_MOTION    = 15.49414359
ECCENTRICITY   = .00017561
INCLINATION    = 53.1602
RA_OF_ASC_NODE = 343.9895
ARG_OF_PERICENTER = 101.1504
MEAN_ANOMALY   = 258.9702

EPHEMERIS_TYPE = 0
CLASSIFICATION_TYPE = U
NORAD_CAT_ID   = 65842
ELEMENT_SET_NO = 999
REV_AT_EPOCH   = 446
BSTAR          = .18026769E-2
MEAN_MOTION_DOT = .101499E-2
MEAN_MOTION_DDOT = 0

CCSDS_OMM_VERS = 2.0
CREATION_DATE  = 
ORIGINATOR     = 

OBJECT_NAME    = STARLINK-35301
OBJECT_ID      = 2025-221W
CENTER_NAME    = EARTH
REF_FRAME      = TEME
TIME_SYSTEM    = UTC
MEAN_ELEMENT_THEORY = SGP/SGP4

EPOCH          = 2025-10-28T09:49:39.843552
MEAN_MOTION    = 15.49338925
ECCENTRICITY   = .00012131
INCLINATION    = 53.1602
RA_OF_ASC_NODE = 343.9813
ARG_OF_PERICENTER = 92.5854
MEAN_ANOMALY   = 267.5294

EPHEMERIS_TYPE = 0
CLASSIFICATION_TYPE = U
NORAD_CAT_ID   = 65843
ELEMENT_SET_NO = 999
REV_AT_EPOCH   = 446
BSTAR          = .15374252E-2
MEAN_MOTION_DOT = .86095E-3
MEAN_MOTION_DDOT = 0

CCSDS_OMM_VERS = 2.0
CREATION_DATE  = 
ORIGINATOR     = 

OBJECT_NAME    = STARLINK-35148
OBJECT_ID      = 2025-221X
CENTER_NAME    = EARTH
REF_FRAME      = TEME
TIME_SYSTEM    = UTC
MEAN_ELEMENT_THEORY = SGP/SGP4

EPOCH          = 2025-10-28T12:55:56.671968
MEAN_MOTION    = 15.49344657
ECCENTRICITY   = .00016804
INCLINATION    = 53.1602
RA_OF_ASC_NODE = 343.3711
ARG_OF_PERICENTER = 55.5706
MEAN_ANOMALY   = 304.5462

EPHEMERIS_TYPE = 0
CLASSIFICATION_TYPE = U
NORAD_CAT_ID   = 65844
ELEMENT_SET_NO = 999
REV_AT_EPOCH   = 448
BSTAR          = .14603931E-2
MEAN_MOTION_DOT = .81731E-3
MEAN_MOTION_DDOT = 0

CCSDS_OMM_VERS = 2.0
CREATION_DATE  = 
ORIGINATOR     = 

OBJECT_NAME    = STARLINK-35302
OBJECT_ID      = 2025-221Y
CENTER_NAME    = EARTH
REF_FRAME      = TEME
TIME_SYSTEM    = UTC
MEAN_ELEMENT_THEORY = SGP/SGP4

EPOCH          = 2025-10-28T12:54:57.367872
MEAN_MOTION    = 15.49326665
ECCENTRICITY   = .0001215
INCLINATION    = 53.1596
RA_OF_ASC_NODE = 343.3617
ARG_OF_PERICENTER = 82.8295
MEAN_ANOMALY   = 277.2852

EPHEMERIS_TYPE = 0
CLASSIFICATION_TYPE = U
NORAD_CAT_ID   = 65845
ELEMENT_SET_NO = 999
REV_AT_EPOCH   = 448
BSTAR          = .10123357E-2
MEAN_MOTION_DOT = .56296E-3
MEAN_MOTION_DDOT = 0

CCSDS_OMM_VERS = 2.0
CREATION_DATE  = 
ORIGINATOR     = 

OBJECT_NAME    = STARLINK-35290
OBJECT_ID      = 2025-221Z
CENTER_NAME    = EARTH
REF_FRAME      = TEME
TIME_SYSTEM    = UTC
MEAN_ELEMENT_THEORY = SGP/SGP4

EPOCH          = 2025-10-28T12:53:57.750144
MEAN_MOTION    = 15.49336540
ECCENTRICITY   = .00007154
INCLINATION    = 53.1597
RA_OF_ASC_NODE = 343.3593
ARG_OF_PERICENTER = 80.6560
MEAN_ANOMALY   = 279.4530

EPHEMERIS_TYPE = 0
CLASSIFICATION_TYPE = U
NORAD_CAT_ID   = 65846
ELEMENT_SET_NO = 999
REV_AT_EPOCH   = 448
BSTAR          = .14513813E-2
MEAN_MOTION_DOT = .81193E-3
MEAN_MOTION_DDOT = 0

