STARLINK-35349          
1 65835U 25221N   25301.47777156  .00125367  00000+0  22184-2 0  9996
2 65835  53.1600 343.7000 0001520 271.1523  88.9312 15.49408289  4476
STARLINK-35356          
1 65836U 25221P   25301.41258039  .00072849  00000+0  13045-2 0  9997
2 65836  53.1599 344.0022 0001277  83.4053 276.7102 15.49334742  4468
STARLINK-35314          
1 65837U 25221Q   25301.34704285  .00102991  00000+0  18337-2 0  9990
2 65837  53.1599 344.3065 0001223  58.3988 301.7140 15.49336752  4451
STARLINK-35324          
1 65838U 25221R   25301.41189630  .00095331  00000+0  16998-2 0  9990
2 65838  53.1595 343.9993 0001768  44.7335 315.3817 15.49333539  4465
STARLINK-35102          
1 65839U 25221S   25301.54021603  .00098306  00000+0  17476-2 0  9997
2 65839  53.1599 343.3759 0001371 279.6354  80.4500 15.49404437  4481
STARLINK-35364          
1 65840U 25221T   25300.57226186  .00066558  00000+0  11943-2 0  9991
2 65840  53.1593 348.0013 0001457  72.3544 287.7624 15.49316861  4332
STARLINK-35238          
1 65841U 25221U   25301.53919157  .00077512  00000+0  13869-2 0  9997
2 65841  53.1593 343.3724 0001381 106.3041 253.8120 15.49329062  4484
STARLINK-35298          
1 65842U 25221V   25301.41051886  .00101499  00000+0  18027-2 0  9994
2 65842  53.1602 343.9895 0001756 101.1504 258.9702 15.49414359  4468
STARLINK-35301          
1 65843U 25221W   25301.40948893  .00086095  00000+0  15374-2 0  9993
2 65843  53.1602 343.9813 0001213  92.5854 267.5294 15.49338925  4464
STARLINK-35148          
1 65844U 25221X   25301.53885037  .00081731  00000+0  14604-2 0  9995
2 65844  53.1602 343.3711 0001680  55.5706 304.5462 15.49344657  4489
STARLINK-35302          
1 65845U 25221Y   25301.53816398  .00056296  00000+0  10123-2 0  9990
2 65845  53.1596 343.3617 0001215  82.8295 277.2852 15.49326665  4485
STARLINK-35290          
1 65846U 25221Z   25301.53747396  .00081193  00000+0  14514-2 0  9994
2 65846  53.1597 343.3593 0000715  80.6560 279.4530 15.49336540  4485
